1 41556U 16033A   21219.92362522  .00000823  00000-0  39647-4 0  9996
2 41556  97.3239 290.7931 0003415  40.4546  74.2621 15.21417357288234
1 41556U 16033A   21220.11592226  .00000821  00000-0  39562-4 0  9999
2 41556  97.3241 290.9803 0003390  39.6603  47.6127 15.21417732288268
1 41556U 16033A   21220.50487451  .00000887  00000-0  42503-4 0  9996
2 41556  97.3238 291.3586 0003380  38.8514  17.3908 15.21418870288320
1 41556U 16033A   21220.65445244  .00000887  00000-0  42518-4 0  9992
2 41556  97.3238 291.5041 0003384  38.1290 116.8425 15.21419162288342
1 41556U 16033A   21220.77755831  .00000877  00000-0  42076-4 0  9999
2 41556  97.3238 291.6238 0003365  37.8059  70.9972 15.21419303288365
1 41556U 16033A   21220.98657019  .00000844  00000-0  40619-4 0  9996
2 41556  97.3238 291.8270 0003318  37.4202 135.4285 15.21419398288398
1 41556U 16033A   21221.15785329  .00000845  00000-0  40663-4 0  9992
2 41556  97.3239 291.9938 0003281  36.9277 353.4570 15.21419760288422
1 41556U 16033A   21221.49163262  .00000858  00000-0  41228-4 0  9997
2 41556  97.3237 292.3184 0003276  35.8430  21.5172 15.21420456288471
1 41556U 16033A   21221.63854466  .00000861  00000-0  41358-4 0  9994
2 41556  97.3237 292.4613 0003275  35.4104 106.0886 15.21420769288492
1 41556U 16033A   21221.77133002  .00000841  00000-0  40444-4 0  9998
2 41556  97.3236 292.5904 0003258  34.8986 113.4136 15.21420829288517
1 41556U 16033A   21221.96355646  .00000791  00000-0  38239-4 0  9992
2 41556  97.3236 292.7772 0003201  34.1263  86.3554 15.21420787288549
1 41556U 16033A   21222.14882589  .00000798  00000-0  38561-4 0  9999
2 41556  97.3236 292.9575 0003161  33.5139  21.0607 15.21421214288576
1 41556U 16033A   21222.42544252  .00000812  00000-0  39179-4 0  9995
2 41556  97.3235 293.2265 0003153  32.5645  96.1015 15.21421813288613
1 41556U 16033A   21222.55374378  .00000821  00000-0  39568-4 0  9991
2 41556  97.3234 293.3514 0003149  32.3843  78.5536 15.21422143288634
1 41556U 16033A   21222.88427978  .00000774  00000-0  37484-4 0  9994
2 41556  97.3234 293.6731 0003107  31.5111  88.6504 15.21422390288687
1 41556U 16033A   21222.88427978  .00000774  00000-0  37484-4 0  9994
2 41556  97.3234 293.6731 0003107  31.5111  88.6504 15.21422390288687
1 41556U 16033A   21223.20504093  .00000780  00000-0  37737-4 0  9993
2 41556  97.3235 293.9852 0003088  30.3161  45.5679 15.21423001288736
1 41556U 16033A   21223.54045797  .00000808  00000-0  39000-4 0  9997
2 41556  97.3234 294.3117 0003052  29.3725  82.4569 15.21423834288786
1 41556U 16033A   21223.54045797  .00000808  00000-0  39000-4 0  9997
2 41556  97.3234 294.3117 0003052  29.3725  82.4569 15.21423834288786
1 41556U 16033A   21223.87301461  .00000796  00000-0  38477-4 0  9999
2 41556  97.3233 294.6353 0003037  28.3066 103.8096 15.21424318288837
1 41556U 16033A   21223.87301461  .00000796  00000-0  38477-4 0  9999
2 41556  97.3233 294.6353 0003037  28.3066 103.8096 15.21424318288837
1 41556U 16033A   21224.19189646  .00000810  00000-0  39093-4 0  9996
2 41556  97.3233 294.9457 0003002  27.3747  50.1802 15.21425003288888
1 41556U 16033A   21224.52733443  .00000846  00000-0  40700-4 0  9999
2 41556  97.3231 295.2719 0003025  25.8214  87.7946 15.21425854288933
1 41556U 16033A   21224.85581387  .00000814  00000-0  39243-4 0  9998
2 41556  97.3231 295.5914 0002998  24.7317  86.8553 15.21426171288985
1 41556U 16033A   21225.05433197  .00000789  00000-0  38150-4 0  9993
2 41556  97.3231 295.7846 0002964  24.5361  93.6636 15.21426318289017
1 41556U 16033A   21225.51399017  .00000817  00000-0  39397-4 0  9992
2 41556  97.3229 296.2318 0002977  22.0338  92.1630 15.21427288289087
1 41556U 16033A   21225.84659791  .00000776  00000-0  37566-4 0  9996
2 41556  97.3228 296.5547 0002997  20.3346 114.4307 15.21427522289131
1 41556U 16033A   21225.84659791  .00000776  00000-0  37566-4 0  9996
2 41556  97.3228 296.5547 0002997  20.3346 114.4307 15.21427522289131
1 41556U 16033A   21226.16564958  .00000730  00000-0  35516-4 0  9995
2 41556  97.3228 296.8651 0002883  19.3179  61.8171 15.21427719289183
1 41556U 16033A   21226.50062762  .00000709  00000-0  34559-4 0  9991
2 41556  97.3224 297.1907 0002865  18.1436  96.5361 15.21428075289238
1 41556U 16033A   21226.50062762  .00000709  00000-0  34559-4 0  9991
2 41556  97.3224 297.1907 0002865  18.1436  96.5361 15.21428075289238
1 41556U 16033A   21226.82075471  .00000683  00000-0  33399-4 0  9999
2 41556  97.3223 297.5020 0002806  17.3681  49.5686 15.21428368289283
1 41556U 16033A   21226.82075471  .00000683  00000-0  33399-4 0  9999
2 41556  97.3223 297.5020 0002806  17.3681  49.5686 15.21428368289283
1 41556U 16033A   21227.14732916  .00000649  00000-0  31883-4 0  9997
2 41556  97.3223 297.8191 0002475  19.8247  34.6628 15.21428629289339
1 41556U 16033A   21227.42396273  .00000645  00000-0  31707-4 0  9991
2 41556  97.3221 298.0881 0002469  18.8799 109.7982 15.21429005289370
1 41556U 16033A   21227.55228905  .00000639  00000-0  31471-4 0  9992
2 41556  97.3220 298.2131 0002468  18.3474  92.7422 15.21429174289392
1 41556U 16033A   21227.88323610  .00000600  00000-0  29717-4 0  9995
2 41556  97.3221 298.5352 0002411  18.1403 104.4315 15.21429335289446
1 41556U 16033A   21227.88323610  .00000600  00000-0  29717-4 0  9995
2 41556  97.3221 298.5352 0002411  18.1403 104.4315 15.21429335289446
1 41556U 16033A   21228.20358998  .00000595  00000-0  29471-4 0  9999
2 41556  97.3221 298.8468 0002381  17.2844  58.7886 15.21429774289498
1 41556U 16033A   21228.53901416  .00000627  00000-0  30905-4 0  9994
2 41556  97.3218 299.1731 0002384  14.9814  97.0839 15.21430533289540
1 41556U 16033A   21228.53901416  .00000627  00000-0  30905-4 0  9994
2 41556  97.3218 299.1731 0002384  14.9814  97.0839 15.21430533289540
1 41556U 16033A   21228.80706600  .00000632  00000-0  31139-4 0  9998
2 41556  97.3218 299.4338 0002378  14.0901 125.1948 15.21430959289587
1 41556U 16033A   21228.80706600  .00000632  00000-0  31139-4 0  9998
2 41556  97.3218 299.4338 0002378  14.0901 125.1948 15.21430959289587
1 41556U 16033A   21229.18584340  .00000645  00000-0  31722-4 0  9997
2 41556  97.3217 299.8023 0002339  12.1811  40.3970 15.21431647289642
1 41556U 16033A   21229.46186843  .00000717  00000-0  34904-4 0  9999
2 41556  97.3216 300.0710 0002376  11.8903 111.5525 15.21432530289681
1 41556U 16033A   21229.46186843  .00000717  00000-0  34904-4 0  9999
2 41556  97.3216 300.0710 0002376  11.8903 111.5525 15.21432530289681
1 41556U 16033A   21229.85433015  .00000711  00000-0  34678-4 0  9990
2 41556  97.3217 300.4527 0002340  10.5026 101.1372 15.21433089289747
1 41556U 16033A   21229.85433015  .00000711  00000-0  34678-4 0  9990
2 41556  97.3217 300.4527 0002340  10.5026 101.1372 15.21433089289747
1 41556U 16033A   21230.17815058  .00000727  00000-0  35379-4 0  9994
2 41556  97.3216 300.7676 0002261   8.9253  75.1956 15.21433754289791
1 41556U 16033A   21230.51443387  .00000776  00000-0  37538-4 0  9997
2 41556  97.3215 301.0945 0002270   8.4126 116.4065 15.21434559289847
1 41556U 16033A   21230.51443387  .00000776  00000-0  37538-4 0  9997
2 41556  97.3215 301.0945 0002270   8.4126 116.4065 15.21434559289847
1 41556U 16033A   21230.78170640  .00000764  00000-0  37021-4 0  9999
2 41556  97.3216 301.3545 0002255   7.2194 140.5566 15.21434906289886
1 41556U 16033A   21230.98358925  .00000739  00000-0  35904-4 0  9995
2 41556  97.3216 301.5508 0002201   6.0105 166.8013 15.21435000289915
1 41556U 16033A   21231.15939054  .00000737  00000-0  35791-4 0  9995
2 41556  97.3217 301.7218 0002167   5.0855  50.0028 15.21435307289941
1 41556U 16033A   21231.43586501  .00000760  00000-0  36822-4 0  9993
2 41556  97.3216 301.9906 0002185   4.1989 124.2157 15.21435863289982
1 41556U 16033A   21231.56963719  .00000763  00000-0  36986-4 0  9991
2 41556  97.3215 302.1207 0002182   3.7067 136.9315 15.21436125290000
1 41556U 16033A   21231.76836929  .00000754  00000-0  36588-4 0  9993
2 41556  97.3216 302.3139 0002173   2.9426 145.4873 15.21436391290039
1 41556U 16033A   21231.89411543  .00000732  00000-0  35604-4 0  9992
2 41556  97.3216 302.4363 0002148   2.0953 114.6250 15.21436393290058
1 41556U 16033A   21232.08679053  .00000717  00000-0  34917-4 0  9995
2 41556  97.3217 302.6238 0002111   1.6871  89.6715 15.21436622290081
1 41556U 16033A   21232.55081560  .00000737  00000-0  35815-4 0  9997
2 41556  97.3215 303.0752 0002086 359.7966 111.4804 15.21437564290155
1 41556U 16033A   21232.94566183  .00000699  00000-0  34109-4 0  9991
2 41556  97.3219 303.4595 0002061 359.0256 113.5063 15.21437905290212
1 41556U 16033A   21233.07372442  .00000698  00000-0  34079-4 0  9994
2 41556  97.3219 303.5841 0002021 358.9056  94.5989 15.21438127290233
1 41556U 16033A   21233.40936686  .00000732  00000-0  35576-4 0  9999
2 41556  97.3219 303.9107 0002043 357.5235 133.1778 15.21438929290281
1 41556U 16033A   21233.53753784  .00000748  00000-0  36302-4 0  9994
2 41556  97.3220 304.0355 0002030 356.9768 115.2915 15.21439295290304
1 41556U 16033A   21233.74315122  .00000744  00000-0  36100-4 0  9999
2 41556  97.3222 304.2356 0002026 356.8315 160.8972 15.21439624290339
1 41556U 16033A   21233.94321274  .00000739  00000-0  35917-4 0  9995
2 41556  97.3222 304.4303 0001985 356.2198 176.5801 15.21439908290362
1 41556U 16033A   21234.11966427  .00000734  00000-0  35674-4 0  9995
2 41556  97.3222 304.6020 0001974 355.5033  63.1350 15.21440184290399
1 41556U 16033A   21234.44804749  .00000820  00000-0  39514-4 0  9992
2 41556  97.3221 304.9214 0002073 353.7518  62.3524 15.21441380290444
1 41556U 16033A   21234.59420441  .00000829  00000-0  39901-4 0  9990
2 41556  97.3219 305.0640 0002099 353.8346 142.2859 15.21441715290467
1 41556U 16033A   21234.78803553  .00000827  00000-0  39819-4 0  9996
2 41556  97.3220 305.2524 0002082 353.1320 123.9581 15.21442048290490
1 41556U 16033A   21234.90823846  .00000809  00000-0  39000-4 0  9999
2 41556  97.3218 305.3691 0002070 352.8557  62.1853 15.21442072290514
